[{"OBJECT_NAME":"ORBCOMM FM06","OBJECT_ID":"1997-084G","EPOCH":"2026-03-09T15:06:31.906944","MEAN_MOTION":14.47270413,"ECCENTRICITY":0.0001937,"INCLINATION":45.0122,"RA_OF_ASC_NODE":171.8858,"ARG_OF_PERICENTER":196.1809,"MEAN_ANOMALY":301.713,"EPHEMERIS_TYPE":0,"CLASSIFICATION_TYPE":"U","NORAD_CAT_ID":25118,"ELEMENT_SET_NO":999,"REV_AT_EPOCH":47996,"BSTAR":0.00064878,"MEAN_MOTION_DOT":2.251e-5,"MEAN_MOTION_DDOT":0},{"OBJECT_NAME":"FENGYUN 1C DEB","OBJECT_ID":"1999-025ARH","EPOCH":"2026-03-09T21:08:52.305216","MEAN_MOTION":14.48727776,"ECCENTRICITY":0.00011978,"INCLINATION":99.3134,"RA_OF_ASC_NODE":202.118,"ARG_OF_PERICENTER":23.5214,"MEAN_ANOMALY":336.6031,"EPHEMERIS_TYPE":0,"CLASSIFICATION_TYPE":"U","NORAD_CAT_ID":30699,"ELEMENT_SET_NO":999,"REV_AT_EPOCH":98874,"BSTAR":0.0025274923,"MEAN_MOTION_DOT":9.491e-5,"MEAN_MOTION_DDOT":0}]
